NOAA 15                 
1 25338U 98030A   25151.83635708  .00000224  00000+0  10950-3 0  9990
2 25338  98.5352 177.1781 0010793  31.5869 328.5958 14.26974256407152
DMSP 5D-3 F16 (USA 172) 
1 28054U 03048A   25151.89014214  .00000049  00000+0  49456-4 0  9991
2 28054  99.0127 167.6474 0007926 139.5169 345.0177 14.14353628115564
NOAA 18                 
1 28654U 05018A   25151.84531424  .00000214  00000+0  13690-3 0  9992
2 28654  98.8423 231.4197 0014876 150.7281 209.4728 14.13606221 32517
METEOSAT-9 (MSG-2)      
1 28912U 05049B   25151.60169850  .00000117  00000+0  00000+0 0  9996
2 28912   8.4923  57.8061 0001669 359.6056  94.2824  1.00276719  3187
EWS-G1 (GOES 13)        
1 29155U 06018A   25150.38827881 -.00000122  00000+0  00000+0 0  9999
2 29155   3.5378  81.1034 0062100 265.9601 335.0524  0.98799745 39467
DMSP 5D-3 F17 (USA 191) 
1 29522U 06050A   25151.87258674  .00000072  00000+0  59511-4 0  9995
2 29522  98.7384 161.2690 0011253  67.4255 292.8108 14.14833204958492
FENGYUN 3A              
1 32958U 08026A   25151.85553939  .00000130  00000+0  82177-4 0  9996
2 32958  98.6476  95.7907 0009310 140.8457 219.3395 14.19442410881412
NOAA 19                 
1 33591U 09005A   25151.85035898  .00000196  00000+0  12867-3 0  9997
2 33591  98.9976 216.5058 0014192  32.8854 327.3198 14.13369702840871
GOES 14                 
1 35491U 09033A   25151.41714985 -.00000073  00000+0  00000+0 0  9999
2 35491   0.6943  88.1643 0001555  56.3321 146.4763  1.00272469  2769
DMSP 5D-3 F18 (USA 210) 
1 35951U 09057A   25151.87522630  .00000269  00000+0  16284-3 0  9991
2 35951  98.8588 129.5270 0009901 253.9114 106.0969 14.14626623805651
EWS-G2 (GOES 15)        
1 36411U 10008A   25151.59956157  .00000032  00000+0  00000+0 0  9998
2 36411   0.2896  85.7127 0001714 123.0296 317.9012  1.00268357 55812
COMS 1                  
1 36744U 10032A   25151.53901461 -.00000350  00000+0  00000+0 0  9990
2 36744   3.8347  80.1275 0000834 329.7132 161.5940  1.00273032 47269
FENGYUN 3B              
1 37214U 10059A   25151.91543002  .00000065  00000+0  57104-4 0  9991
2 37214  99.0131 190.2154 0022082 183.8872 299.4060 14.14727874753555
SUOMI NPP               
1 37849U 11061A   25151.80153335  .00000101  00000+0  68927-4 0  9999
2 37849  98.7576  91.1658 0001569  24.6850 335.4401 14.19535998704321
