[
  {
    "OBJECT_NAME": "NOAA 15",
    "OBJECT_ID": "1998-030A",
    "EPOCH": "2025-05-31T20:04:21.251712",
    "MEAN_MOTION": 14.26974256,
    "ECCENTRICITY": 0.0010793,
    "INCLINATION": 98.5352,
    "RA_OF_ASC_NODE": 177.1781,
    "ARG_OF_PERICENTER": 31.5869,
    "MEAN_ANOMALY": 328.5958,
    "EPHEMERIS_TYPE": 0,
    "CLASSIFICATION_TYPE": "U",
    "NORAD_CAT_ID": 25338,
    "ELEMENT_SET_NO": 999,
    "REV_AT_EPOCH": 40715,
    "BSTAR": 0.0001095,
    "MEAN_MOTION_DOT": 2.24e-06,
    "MEAN_MOTION_DDOT": 0
  },
  {
    "OBJECT_NAME": "DMSP 5D-3 F16 (USA 172)",
    "OBJECT_ID": "2003-048A",
    "EPOCH": "2025-05-31T21:21:48.280896",
    "MEAN_MOTION": 14.14353628,
    "ECCENTRICITY": 0.0007926,
    "INCLINATION": 99.0127,
    "RA_OF_ASC_NODE": 167.6474,
    "ARG_OF_PERICENTER": 139.5169,
    "MEAN_ANOMALY": 345.0177,
    "EPHEMERIS_TYPE": 0,
    "CLASSIFICATION_TYPE": "U",
    "NORAD_CAT_ID": 28054,
    "ELEMENT_SET_NO": 999,
    "REV_AT_EPOCH": 11556,
    "BSTAR": 4.9456e-05,
    "MEAN_MOTION_DOT": 4.9e-07,
    "MEAN_MOTION_DDOT": 0
  },
  {
    "OBJECT_NAME": "NOAA 18",
    "OBJECT_ID": "2005-018A",
    "EPOCH": "2025-05-31T20:17:15.150336",
    "MEAN_MOTION": 14.13606221,
    "ECCENTRICITY": 0.0014876,
    "INCLINATION": 98.8423,
    "RA_OF_ASC_NODE": 231.4197,
    "ARG_OF_PERICENTER": 150.7281,
    "MEAN_ANOMALY": 209.4728,
    "EPHEMERIS_TYPE": 0,
    "CLASSIFICATION_TYPE": "U",
    "NORAD_CAT_ID": 28654,
    "ELEMENT_SET_NO": 999,
    "REV_AT_EPOCH": 3251,
    "BSTAR": 0.0001369,
    "MEAN_MOTION_DOT": 2.14e-06,
    "MEAN_MOTION_DDOT": 0
  },
  {
    "OBJECT_NAME": "METEOSAT-9 (MSG-2)",
    "OBJECT_ID": "2005-049B",
    "EPOCH": "2025-05-31T14:26:26.750400",
    "MEAN_MOTION": 1.00276719,
    "ECCENTRICITY": 0.0001669,
    "INCLINATION": 8.4923,
    "RA_OF_ASC_NODE": 57.8061,
    "ARG_OF_PERICENTER": 359.6056,
    "MEAN_ANOMALY": 94.2824,
    "EPHEMERIS_TYPE": 0,
    "CLASSIFICATION_TYPE": "U",
    "NORAD_CAT_ID": 28912,
    "ELEMENT_SET_NO": 999,
    "REV_AT_EPOCH": 318,
    "BSTAR": 0,
    "MEAN_MOTION_DOT": 1.17e-06,
    "MEAN_MOTION_DDOT": 0
  },
  {
    "OBJECT_NAME": "EWS-G1 (GOES 13)",
    "OBJECT_ID": "2006-018A",
    "EPOCH": "2025-05-30T09:19:07.289184",
    "MEAN_MOTION": 0.98799745,
    "ECCENTRICITY": 0.00621,
    "INCLINATION": 3.5378,
    "RA_OF_ASC_NODE": 81.1034,
    "ARG_OF_PERICENTER": 265.9601,
    "MEAN_ANOMALY": 335.0524,
    "EPHEMERIS_TYPE": 0,
    "CLASSIFICATION_TYPE": "U",
    "NORAD_CAT_ID": 29155,
    "ELEMENT_SET_NO": 999,
    "REV_AT_EPOCH": 3946,
    "BSTAR": 0,
    "MEAN_MOTION_DOT": -1.22e-06,
    "MEAN_MOTION_DDOT": 0
  },
  {
    "OBJECT_NAME": "DMSP 5D-3 F17 (USA 191)",
    "OBJECT_ID": "2006-050A",
    "EPOCH": "2025-05-31T20:56:31.494336",
    "MEAN_MOTION": 14.14833204,
    "ECCENTRICITY": 0.0011253,
    "INCLINATION": 98.7384,
    "RA_OF_ASC_NODE": 161.269,
    "ARG_OF_PERICENTER": 67.4255,
    "MEAN_ANOMALY": 292.8108,
    "EPHEMERIS_TYPE": 0,
    "CLASSIFICATION_TYPE": "U",
    "NORAD_CAT_ID": 29522,
    "ELEMENT_SET_NO": 999,
    "REV_AT_EPOCH": 95849,
    "BSTAR": 5.9511e-05,
    "MEAN_MOTION_DOT": 7.2e-07,
    "MEAN_MOTION_DDOT": 0
  },
  {
    "OBJECT_NAME": "FENGYUN 3A",
    "OBJECT_ID": "2008-026A",
    "EPOCH": "2025-05-31T20:31:58.603296",
    "MEAN_MOTION": 14.1944241,
    "ECCENTRICITY": 0.000931,
    "INCLINATION": 98.6476,
    "RA_OF_ASC_NODE": 95.7907,
    "ARG_OF_PERICENTER": 140.8457,
    "MEAN_ANOMALY": 219.3395,
    "EPHEMERIS_TYPE": 0,
    "CLASSIFICATION_TYPE": "U",
    "NORAD_CAT_ID": 32958,
    "ELEMENT_SET_NO": 999,
    "REV_AT_EPOCH": 88141,
    "BSTAR": 8.2177e-05,
    "MEAN_MOTION_DOT": 1.3e-06,
    "MEAN_MOTION_DDOT": 0
  },
  {
    "OBJECT_NAME": "NOAA 19",
    "OBJECT_ID": "2009-005A",
    "EPOCH": "2025-05-31T20:24:31.015872",
    "MEAN_MOTION": 14.13369702,
    "ECCENTRICITY": 0.0014192,
    "INCLINATION": 98.9976,
    "RA_OF_ASC_NODE": 216.5058,
    "ARG_OF_PERICENTER": 32.8854,
    "MEAN_ANOMALY": 327.3198,
    "EPHEMERIS_TYPE": 0,
    "CLASSIFICATION_TYPE": "U",
    "NORAD_CAT_ID": 33591,
    "ELEMENT_SET_NO": 999,
    "REV_AT_EPOCH": 84087,
    "BSTAR": 0.00012867,
    "MEAN_MOTION_DOT": 1.96e-06,
    "MEAN_MOTION_DDOT": 0
  },
  {
    "OBJECT_NAME": "GOES 14",
    "OBJECT_ID": "2009-033A",
    "EPOCH": "2025-05-31T10:00:41.747040",
    "MEAN_MOTION": 1.00272469,
    "ECCENTRICITY": 0.0001555,
    "INCLINATION": 0.6943,
    "RA_OF_ASC_NODE": 88.1643,
    "ARG_OF_PERICENTER": 56.3321,
    "MEAN_ANOMALY": 146.4763,
    "EPHEMERIS_TYPE": 0,
    "CLASSIFICATION_TYPE": "U",
    "NORAD_CAT_ID": 35491,
    "ELEMENT_SET_NO": 999,
    "REV_AT_EPOCH": 276,
    "BSTAR": 0,
    "MEAN_MOTION_DOT": -7.3e-07,
    "MEAN_MOTION_DDOT": 0
  },
  {
    "OBJECT_NAME": "DMSP 5D-3 F18 (USA 210)",
    "OBJECT_ID": "2009-057A",
    "EPOCH": "2025-05-31T21:00:19.552320",
    "MEAN_MOTION": 14.14626623,
    "ECCENTRICITY": 0.0009901,
    "INCLINATION": 98.8588,
    "RA_OF_ASC_NODE": 129.527,
    "ARG_OF_PERICENTER": 253.9114,
    "MEAN_ANOMALY": 106.0969,
    "EPHEMERIS_TYPE": 0,
    "CLASSIFICATION_TYPE": "U",
    "NORAD_CAT_ID": 35951,
    "ELEMENT_SET_NO": 999,
    "REV_AT_EPOCH": 80565,
    "BSTAR": 0.00016284,
    "MEAN_MOTION_DOT": 2.69e-06,
    "MEAN_MOTION_DDOT": 0
  },
  {
    "OBJECT_NAME": "EWS-G2 (GOES 15)",
    "OBJECT_ID": "2010-008A",
    "EPOCH": "2025-05-31T14:23:22.119648",
    "MEAN_MOTION": 1.00268357,
    "ECCENTRICITY": 0.0001714,
    "INCLINATION": 0.2896,
    "RA_OF_ASC_NODE": 85.7127,
    "ARG_OF_PERICENTER": 123.0296,
    "MEAN_ANOMALY": 317.9012,
    "EPHEMERIS_TYPE": 0,
    "CLASSIFICATION_TYPE": "U",
    "NORAD_CAT_ID": 36411,
    "ELEMENT_SET_NO": 999,
    "REV_AT_EPOCH": 5581,
    "BSTAR": 0,
    "MEAN_MOTION_DOT": 3.2e-07,
    "MEAN_MOTION_DDOT": 0
  },
  {
    "OBJECT_NAME": "COMS 1",
    "OBJECT_ID": "2010-032A",
    "EPOCH": "2025-05-31T12:56:10.862304",
    "MEAN_MOTION": 1.00273032,
    "ECCENTRICITY": 8.34e-05,
    "INCLINATION": 3.8347,
    "RA_OF_ASC_NODE": 80.1275,
    "ARG_OF_PERICENTER": 329.7132,
    "MEAN_ANOMALY": 161.594,
    "EPHEMERIS_TYPE": 0,
    "CLASSIFICATION_TYPE": "U",
    "NORAD_CAT_ID": 36744,
    "ELEMENT_SET_NO": 999,
    "REV_AT_EPOCH": 4726,
    "BSTAR": 0,
    "MEAN_MOTION_DOT": -3.5e-06,
    "MEAN_MOTION_DDOT": 0
  },
  {
    "OBJECT_NAME": "FENGYUN 3B",
    "OBJECT_ID": "2010-059A",
    "EPOCH": "2025-05-31T21:58:13.153728",
    "MEAN_MOTION": 14.14727874,
    "ECCENTRICITY": 0.0022082,
    "INCLINATION": 99.0131,
    "RA_OF_ASC_NODE": 190.2154,
    "ARG_OF_PERICENTER": 183.8872,
    "MEAN_ANOMALY": 299.406,
    "EPHEMERIS_TYPE": 0,
    "CLASSIFICATION_TYPE": "U",
    "NORAD_CAT_ID": 37214,
    "ELEMENT_SET_NO": 999,
    "REV_AT_EPOCH": 75355,
    "BSTAR": 5.7104e-05,
    "MEAN_MOTION_DOT": 6.5e-07,
    "MEAN_MOTION_DDOT": 0
  },
  {
    "OBJECT_NAME": "SUOMI NPP",
    "OBJECT_ID": "2011-061A",
    "EPOCH": "2025-05-31T19:14:12.481440",
    "MEAN_MOTION": 14.19535998,
    "ECCENTRICITY": 0.0001569,
    "INCLINATION": 98.7576,
    "RA_OF_ASC_NODE": 91.1658,
    "ARG_OF_PERICENTER": 24.685,
    "MEAN_ANOMALY": 335.4401,
    "EPHEMERIS_TYPE": 0,
    "CLASSIFICATION_TYPE": "U",
    "NORAD_CAT_ID": 37849,
    "ELEMENT_SET_NO": 999,
    "REV_AT_EPOCH": 70432,
    "BSTAR": 6.8927e-05,
    "MEAN_MOTION_DOT": 1.01e-06,
    "MEAN_MOTION_DDOT": 0
  }
]